ID_UEV	TYPE	NOM	ARRONDISSE	ADRESSE	PROPRIETE	GESTION	POINT_X	POINT_Y	EQUIPEME	LONG	LAT
3116265	Piscine intérieure	Sophie-Barat	Ahuntsic–Cartierville	10 851, Rue Saint-Charles, H2C 3H7	Municipale	Municipale	291703,7809	5046899,148	Piscine compétitive	-73.667771	45.561879
3114253	Piscine intérieure	ETE	Ahuntsic–Cartierville	1 000, Avenue Émile-Journealt Est	Municipale	Municipale	294151,2717	5045855,457	Complexe aquatique	-73.63639	45.552526
3021351	Piscine extérieure	Marcelin-Wilson	Ahuntsic–Cartierville	1 655, Rue Dudemaine, H3M 1R2	Municipale	Municipale	290413,3232	5044137,201		-73.684215	45.537
3023745	Piscine extérieure	Gabriel-Lalemant	Ahuntsic–Cartierville	2 350, Rue Sauvé Est, H2B 1B2	Municipale	Municipale	293681,7773	5047876,482		-73.642456	45.570705
5018645	Piscine extérieure	Parc Lucie-Bruneau	Anjou	7 051, Avenue de l’Alsace	Municipale	Privé	298272,3381	5051460,248		-73.583684	45.603013
2164916	Piscine extérieure	Parc Chénier	Anjou	5 555, Avenue de l’Aréna	Municipale	Privé	301422,701	5051453,457		-73.543303	45.602972
5068257	Piscine extérieure	Parc des Roseraies	Anjou	7 070, Avenue de la Nantaise	Municipale	Privé	300500,6874	5050386,914		-73.555113	45.593366
5010387	Piscine extérieure	Parc Roger-Rousseau	Anjou	7 501, Avenue Rondeau	Municipale	Privé	300901,7124	5052992,126		-73.549995	45.616818
2031382	Piscine extérieure	Parc Verdelle	Anjou	8 441, Place Verdelles	Municipale	Privé	300932,7921	5052058,066		-73.54959	45.608413
5075187	Pataugeoire	Parc Talcy	Anjou	8 151, Avenue Talcy	Municipale	Privé	300118,683	5051922,993		-73.560024	45.607185
2031382	Pataugeoire	Parc Verdelle	Anjou	8 441, Place Verdelles	Municipale	Privé	300932,7921	5052058,066		-73.54959	45.608413
5018645	Pataugeoire	Parc Lucie-Bruneau	Anjou	7 051, Avenue de l’Alsace	Municipale	Privé	298272,3381	5051460,248		-73.583684	45.603013
5031157	Pataugeoire	Parc André-Laurendeau	Anjou	8 361, Avenue André-Laurendeau	Municipale	Privé	299359,252	5051600,462		-73.569751	45.604282
2164916	Pataugeoire	Parc Chénier	Anjou	5 555, Avenue de l’Aréna	Municipale	Privé	301422,701	5051453,457		-73.543303	45.602972
2036764	Pataugeoire	Parc Bocage	Anjou	6 200, Avenue du Bocage	Municipale	Privé	300755,4698	5050299,696		-73.551844	45.592584
5010387	Pataugeoire	Parc Roger-Rousseau	Anjou	7 501, Avenue Rondeau	Municipale	Privé	300901,7124	5052992,126		-73.549995	45.616818
2036764	Jeu d'eau	Parc Bocage	Anjou	6 200, Avenue du Bocage	Municipale	Privé	300755,4698	5050299,696		-73.551844	45.592584
5075187	Jeu d'eau	Parc Talcy	Anjou	8 151, Avenue Talcy	Municipale	Privé	300118,683	5051922,993		-73.560024	45.607185
2032190	Jeu d'eau	Parc Peterborough	Anjou	8 400,Boulevard Châteauneuf	Municipale	Privé	300466,8693	5052322,791		-73.555566	45.610786
5010387	Jeu d'eau	Parc Roger Rousseau	Anjou	7 501, Avenue Rondeau	Municipale	Privé	300901,7124	5052992,126		-73.549995	45.616818
3065293	Piscine intérieure	Centre communautaire Notre-Dame-de-Grâce	Côte-des-Neiges–Notre-Dame-de-Grâce	5 311, Chemin de la Côte-Saint-Antoine	Municipale	Municipale	295898,1254	5037368,988	Piscine récréative	-73.613861	45.476181
5005023	Piscine intérieure	Centre sportif Côte-des-Neiges	Côte-des-Neiges–Notre-Dame-de-Grâce	4 880, Avenue Van Horne	Municipale	OBNL	294009,0706	5039206,095	Complexe aquatique	-73.638062	45.492694
3065833	Piscine intérieure	Centre sportif de Notre-Dame-de-Grâce	Côte-des-Neiges–Notre-Dame-de-Grâce	6 445, Avenue Monkland	Municipale	Privé	294423,0373	5036292,024	Piscine compétitive	-73.632704	45.466479
3006474	Piscine extérieure	Parc de Kent	Côte-des-Neiges–Notre-Dame-de-Grâce	6 262, Chemin Hudson	Municipale	Municipale	294480,4208	5040457,946		-73.632063	45.503958
3066686	Piscine extérieure	Parc de la Confédération	Côte-des-Neiges–Notre-Dame-de-Grâce	6 265, Avenue Biermans	Municipale	Municipale	293982,2718	5036902,453		-73.638357	45.471961
3074458	Pataugeoire	Parc Jean-Brillant	Côte-des-Neiges–Notre-Dame-de-Grâce	5 252, Avenue Decelles	Municipale	Municipale	295437,9104	5039676,14		-73.619801	45.496944
3006474	Pataugeoire	Parc de Kent	Côte-des-Neiges–Notre-Dame-de-Grâce	3 533, Avenue de Kent	Municipale	Municipale	294480,4208	5040457,946		-73.632063	45.503958
3007015	Pataugeoire	Parc Van Horne	Côte-des-Neiges–Notre-Dame-de-Grâce	4 900, Avenue Van Horne	Municipale	Municipale	293956,4134	5039088,994		-73.638738	45.491631
3064845	Pataugeoire	Parc Trenholme	Côte-des-Neiges–Notre-Dame-de-Grâce	6 800, Rue Sherbrooke Ouest	Municipale	Municipale	294507,4011	5035648,762		-73.631616	45.460685
3033630	Pataugeoire	Parc McDonald	Côte-des-Neiges–Notre-Dame-de-Grâce	5 355, Avenue Clanranald	Municipale	Municipale	294163,3637	5038216,469		-73.636071	45.483788
3033394	Pataugeoire	Parc Rosemary-Brown	Côte-des-Neiges–Notre-Dame-de-Grâce	6 665, Avenue McLynn	Municipale	Municipale	293228,1198	5038899,095		-73.648047	45.489919
3066686	Pataugeoire	Parc de la Confédération	Côte-des-Neiges–Notre-Dame-de-Grâce	Avenue Biemans	Municipale	Municipale	293982,2718	5036902,453		-73.638357	45.471961
3064583	Pataugeoire	Parc Georges-Saint-Pierre	Côte-des-Neiges–Notre-Dame-de-Grâce	999, Avenue d’Oxford	Municipale	Municipale	296381,6749	5036531,357		-73.607669	45.468656
3066567	Pataugeoire	Parc Loyola	Côte-des-Neiges–Notre-Dame-de-Grâce	7 069, Avenue Somerland	Municipale	Municipale	293385,1183	5035738,34		-73.645965	45.461477
3040406	Jeu d'eau	Parc de la Savanne	Côte-des-Neiges–Notre-Dame-de-Grâce	5 111, Rue Paré	Municipale	Municipale	292702,3142	5039879,71		-73.654801	45.498728
3006474	Jeu d'eau	Parc de Kent	Côte-des-Neiges–Notre-Dame-de-Grâce	3 533, Avenue de Kent	Municipale	Municipale	294480,4208	5040457,946		-73.632063	45.503958
3039080	Jeu d'eau	Parc Notre-Dame-de-Grâce	Côte-des-Neiges–Notre-Dame-de-Grâce	Avenue Marcil	Municipale	Municipale	295866,3776	5036993,461		-73.614263	45.472807
3074458	Jeu d'eau	Parc Jean-Brillant	Côte-des-Neiges–Notre-Dame-de-Grâce	5 252, Avenue Decelles	Municipale	Municipale	295437,9104	5039676,14		-73.619801	45.496944
3073051	Jeu d'eau	Parc Mackenzie-King	Côte-des-Neiges–Notre-Dame-de-Grâce	4 905, Avenue Saint-Kevin	Municipale	Municipale	294352,7698	5038897,595		-73.633667	45.489919
3066686	Jeu d'eau	Parc de la Confédération	Côte-des-Neiges–Notre-Dame-de-Grâce	Avenue Biemans	Municipale	Municipale	293982,2718	5036902,453		-73.638357	45.471961
3042233	Jeu d'eau	Parc Nelson Mandela	Côte-des-Neiges–Notre-Dame-de-Grâce	4920, Rue Vézina	Municipale	Municipale	293549,2598	5039448,798		-73.643953	45.494864
3065833	Jeu d'eau	Parc Benny	Côte-des-Neiges–Notre-Dame-de-Grâce	6445, avenue Monkland	Municipale	Municipale	294423,0373	5036292,024		-73.632704	45.466479
4084462	Piscine extérieure	Parc Robert-Sauvé	L'Île-Bizard–Sainte-Geneviève	15 734, Rue de la Caserne, Sainte-Geneviève	Municipale	Municipale	276130,5669	5037974,506		-73.866735	45.481102
4053724	Piscine extérieure	Parc Eugène-D’Ostie	L'Île-Bizard–Sainte-Geneviève	488, Montée de l’Église, L'Île-Bizard	Municipale	Municipale	274821,8474	5038563,963		-73.883515	45.486348
4084462	Pataugeoire	Parc Robert-Sauvé	L'Île-Bizard–Sainte-Geneviève	15 734, Rue de la Caserne, Sainte-Geneviève	Municipale	Municipale	276130,5669	5037974,506		-73.866735	45.481102
4053724	Pataugeoire	Parc Eugène-D’Ostie	L'Île-Bizard–Sainte-Geneviève	488, Montée de l’Église, L'Île-Bizard	Municipale	Municipale	274821,8474	5038563,963		-73.883515	45.486348
5060035	Piscine extérieure	Parc Lasalle	Lachine	475, 10e Avenue	Municipale	Municipale	291104,1199	5033162,161		-73.675061	45.438256
5054431	Piscine extérieure	Parc Kirkland	Lachine	150, Rue des Érables	Municipale	Municipale	293083,0154	5034007,493		-73.649786	45.445896
5056523	Piscine extérieure	Parc Duff-Court	Lachine	1 830, Croissant Roy	Municipale	Municipale	290670,4398	5034129,795		-73.680636	45.446949
5088238	Piscine extérieure	Parc Dixie	Lachine	695, 54e Avenue	Municipale	OBNL	287744,8847	5033783,241		-73.718029	45.44377
5061272	Piscine extérieure	Port de Plaisance	Lachine	1 800, Chemin des Iroquois	Municipale	OBNL	290986,3256	5032227,781		-73.676543	45.42984
5060035	Pataugeoire	Parc Lasalle 1	Lachine	1 950, Remembrance	Municipale	Municipale	291104,1199	5033162,161		-73.675061	45.438256
5060035	Pataugeoire	Parc Lasalle 2	Lachine	1 950, Remembrance	Municipale	Municipale	291104,1199	5033162,161		-73.675061	45.438256
5056523	Pataugeoire	Parc Duff-Court	Lachine	1 830, Croissant Roy	Municipale	Municipale	290670,4398	5034129,795		-73.680636	45.446949
5052735	Pataugeoire	Parc Carignan	Lachine	4 100, Rue Provost	Municipale	Municipale	288993,9524	5033747,338		-73.702062	45.443476
5054431	Jeu d'eau	Parc Kirkland	Lachine	150, Rue des Érables	Municipale	Municipale	293083,0154	5034007,493		-73.649786	45.445896
4156343	Piscine intérieure	L’Aquadôme LaSalle	LaSalle	1 411, Rue Lapierre	Municipale	Privé	296335,6987	5032962,552	Complexe aquatique	-73.608196	45.43654
4127635	Piscine extérieure	Parc Haymard	LaSalle	170, Avenue Orchard	Municipale	Privé	293208,1671	5031500,121		-73.648129	45.423339
4033627	Piscine extérieure	Parc Lefebvre	LaSalle	8 600, Rue Hardy	Municipale	Privé	294205,3476	5032846,791		-73.635418	45.435467
4048051	Piscine extérieure	Parc Leroux	LaSalle	7 540, Rue Centrale	Municipale	Privé	297331,444	5032712,678		-73.595461	45.434301
4045983	Piscine extérieure	Parc Raymond	LaSalle	555, Boulevard Bishop-Power	Municipale	Privé	296731,981	5032023,632		-73.603119	45.428095
4039115	Piscine extérieure	Parc Ouellette (natation et récréatif)	LaSalle	1 407, Rue Serre	Municipale	Privé	295254,0967	5032569,894		-73.622005	45.432989
4143045	Piscine extérieure	Parc Ménard	LaSalle	300, Rue Clément	Municipale	Privé	292815,8028	5032646,392		-73.653179	45.433645
4049099	Piscine extérieure	Parc Lacharité	LaSalle	55, Avenue Latour	Municipale	Privé	295203,7654	5030924,055		-73.622624	45.418186
4046808	Piscine extérieure	Parc Riverside	LaSalle	625, 35e Avenue	Municipale	Privé	295940,2001	5031131,875		-73.613211	45.420058
4143045	Jeu d'eau	Parc Ménard	LaSalle	Rue Bergevin	Municipale	Privé	292815,8028	5032646,392		-73.653179	45.433645
4024539	Jeu d'eau	Parc Dalmany	LaSalle	9 650, Rue Dalmany	Municipale	Privé	292358,483	5032163,485		-73.659007	45.42929
4127635	Jeu d'eau	Parc Hayward	LaSalle	170, Avenue Orchard	Municipale	Privé	293208,1671	5031500,121		-73.648129	45.423339
4033627	Jeu d'eau	Parc Lefebvre	LaSalle	8 600, Rue Hardy	Municipale	Privé	294205,3476	5032846,791		-73.635418	45.435467
4047994	Jeu d'eau	Parc Riverside	LaSalle	625, 35e Avenue	Municipale	Privé	296057,9861	5031171,949		-73.611717	45.42042
4048051	Jeu d'eau	Parc Leroux	LaSalle	7 540, Rue Centrale	Municipale	Privé	297331,444	5032712,678		-73.595461	45.434301
4034363	Jeu d'eau	Parc Lawrence	LaSalle	Rue Beyries	Municipale	Privé	294879,0621	5030918,425		-73.626764	45.418127
4037363	Jeu d'eau	Parc Boivin	LaSalle	Rue de Matane	Municipale	Privé	294351,4089	5031023,475		-73.633513	45.419065
4042795	Jeu d'eau	Parc J.D. Ducharme	LaSalle	Rue Daoust	Municipale	Privé	295124,6393	5032004,81		-73.623655	45.427903
4038155	Jeu d'eau	Parc J.O.R.-Leduc	LaSalle	Rue Paquette	Municipale	Privé	294415,6633	5032014,401		-73.632716	45.427983
4039115	Jeu d'eau	Parc Ouelette	LaSalle	1407, Rue Serre	Municipale	Privé	295254,0967	5032569,894		-73.622005	45.432989
4027481	Jeu d'eau	Parc Jeannotte	LaSalle	Angle des rues Clément et Trudeau	Municipale	Privé	293881,1969	5032504,888		-73.639551	45.432384
4123964	Jeu d'eau	Parc Père-Marquette	LaSalle	Angle des rues Bouvier et Louis-Joliet	Municipale	Privé	295769,5011	5032318,57		-73.615418	45.430737
1017231	Piscine intérieure	Bain Lévesque	Le Plateau Mont-Royal	955, Rue Marie-Anne Est	Municipale	Municipale	298715,0666	5042928,684	Piscine récréative	-73.577899	45.526243
1041817	Piscine intérieure	Bain Schubert	Le Plateau Mont-Royal	3 950, Boulevard Saint-Laurent	Municipale	Municipale	298644,329	5041840,169	Piscine récréative	-73.578794	45.516452
1034674	Piscine intérieure	Centre du Plateau	Le Plateau Mont-Royal	2 275, Boulevard St-Joseph	Municipale	Municipale	298926,669	5044373,814	Piscine récréative	-73.575215	45.539247
1028133	Piscine extérieure	Parc Sir Wilfrid-Laurier	Le Plateau Mont-Royal	5 200, Rue De Brébeuf	Municipale	Municipale	297940,1453	5043583,508		-73.58783	45.53213
1026261	Piscine extérieure	Parc Baldwin	Le Plateau Mont-Royal	2 330, Rue Rachel Est	Municipale	Municipale	299849,2929	5043868,315		-73.563391	45.53471
1028133	Pataugeoire	Parc Sir Wilfrid-Laurier	Le Plateau Mont-Royal	5 200, Rue De Brébeuf	Municipale	Municipale	297940,1453	5043583,508		-73.58783	45.53213
1003664	Pataugeoire	Parc Jeanne-Mance	Le Plateau Mont-Royal	4 167, Avenue de l’Esplanade	Municipale	Municipale	297684,1752	5040632,413		-73.591064	45.505573
1026261	Pataugeoire	Parc Baldwin	Le Plateau Mont-Royal	2 330, Rue Rachel Est	Municipale	Municipale	299849,2929	5043868,315		-73.563391	45.53471
1027502	Pataugeoire	Parc La Fontaine ouest	Le Plateau Mont-Royal	1 450, Rue Rachel Est	Municipale	Municipale	299382,7103	5042884,97		-73.56936	45.525852
1027502	Pataugeoire	Parc La Fontaine est	Le Plateau Mont-Royal	2 450, Rue Rachel Est	Municipale	Municipale	299382,7103	5042884,97		-73.56936	45.525852
1026261	Jeu d'eau	Parc Baldwin	Le Plateau Mont-Royal	2 330, rue Rachel Est	Municipale	Municipale	299849,2929	5043868,315		-73.563391	45.53471
1031761	Jeu d'eau	Parc Alphonse-Télesphore-Lépine	Le Plateau Mont-Royal	Avenue De Gaspé	Municipale	Municipale	297567,4615	5042885,79		-73.592595	45.525845
5073473	Jeu d'eau	Parc Clark	Le Plateau Mont-Royal	Rue Clark	Municipale	Municipale	296612,4463	5043057,287		-73.604823	45.527382
1001870	Jeu d'eau	Parc Gilles-Lefebvre	Le Plateau Mont-Royal	Rue Drolet	Municipale	Municipale	298225,4216	5042609,564		-73.584168	45.523368
5091157	Jeu d'eau	Parc Saint-Michel	Le Plateau Mont-Royal	Avenue Laurier Est et rue Saint-Dominique	Municipale	Municipale	297543,4176	5042694,682		-73.592899	45.524126
5007586	Piscine intérieure	Complexe sportif Gadbois	Le Sud-Ouest	5 485, Chemin De la Côte-Saint-Paul	Municipale	Municipale	297313,4215	5036328,297	Piscine compétitive	-73.595746	45.46684
1020721	Piscine intérieure	Centre sportif St-Charles	Le Sud-Ouest	1 055, Rue Hibernia	Municipale	Municipale	299867,9341	5037766,346	Piscine récréative	-73.563099	45.479802
5088615	Piscine intérieure	Bain Émard	Le Sud-Ouest	6 071, Rue Laurendeau	Municipale	Municipale	297803,5283	5035323,57	Piscine récréative	-73.589466	45.457801
1123220	Piscine intérieure	Piscine intérieure Saint-Henri	Le Sud-Ouest	4 055, Rue St-Jacques	Municipale	Municipale	297967,0348	5037586,499	Piscine compétitive	-73.5874	45.478166
5006029	Piscine intérieure	Centre sportif Petite-Bourgogne	Le Sud-Ouest	1 825, Rue Notre-Dame Ouest	Municipale	OBNL	299389,6801	5038717,468	Piscine récréative	-73.569224	45.488356
1046323	Piscine extérieure	Parc Sir George-Étienne-Cartier	Le Sud-Ouest	4 550, Rue Sainte-Émilie	Municipale	Municipale	298045,6165	5037056,587		-73.586395	45.473398
1129831	Piscine extérieure	Parc Ignace-Bourget	Le Sud-Ouest	5 925, Avenue De Montmagny	Municipale	Municipale	296402,7493	5035017,941		-73.607374	45.455032
1013876	Pataugeoire	Parc curé Albert-Arnold	Le Sud-Ouest	6 855, Rue Hamilton	Municipale	Municipale	297320,3666	5034424,653		-73.595628	45.449707
5033990	Pataugeoire	Parc Le Ber	Le Sud-Ouest	470, Rue Fortune	Municipale	Municipale	300569,5609	5037485,349		-73.554118	45.477278
1020818	Pataugeoire	Parc Saint-Gabriel	Le Sud-Ouest	2 355, Rue Mullins	Municipale	Municipale	299758,9738	5037666,336		-73.564493	45.478901
1048440	Pataugeoire	Parc Vinet	Le Sud-Ouest	550, Rue Vinet	Municipale	Municipale	298878,1523	5038234,701		-73.575756	45.484006
5096175	Pataugeoire	Parc Campbell-Centre	Le Sud-Ouest	810, Rue Chatham	Municipale	Municipale	299000,1862	5038804,066		-73.574202	45.489136
1008171	Pataugeoire	Parc Campbell-Ouest	Le Sud-Ouest	1 990, Rue de Maricourt	Municipale	Municipale	297630,3466	5035340,982		-73.591678	45.457952
1129831	Pataugeoire	Parc Ignace-Bourget	Le Sud-Ouest	Avenue de Montmagny	Municipale	Municipale	296402,7493	5035017,941		-73.607374	45.455032
1035819	Jeu d'eau	Parc Louis-Cyr	Le Sud-Ouest	205, Rue Saint-Ferdinand	Municipale	Municipale	298387,8063	5037338,695		-73.582025	45.475939
2054519	Piscine intérieure	Édouard-Montpetit	Mercier–Hochelaga-Maisonneuve	6 100, Avenue Pierre-de-Coubertin	Municipale	Municipale	301882,2974	5048409,183	Piscine compétitive	-73.537388	45.575583
2063743	Piscine intérieure	Hochelaga	Mercier–Hochelaga-Maisonneuve	1 870, Rue Davidson	Municipale	Municipale	301319,5393	5044694,075	Piscine compétitive	-73.544576	45.542152
2065901	Piscine intérieure	Bain Morgan	Mercier–Hochelaga-Maisonneuve	1 875, Avenue Morgan	Municipale	Municipale	301810,6112	5045950,116	Piscine récréative	-73.538296	45.553456
5089500	Piscine extérieure	Maisonneuve	Mercier–Hochelaga-Maisonneuve	4 350, Rue de Rouen	Municipale	Privé	301520,9715	5046038,005		-73.542011	45.554247
2050446	Piscine extérieure	Parc L.-O.-Taillon	Mercier–Hochelaga-Maisonneuve	9 200, Rue Notre-Dame Est	Municipale	Municipale	303925,6699	5051785,999	"Rénovation majeure en 2011"""	-73.511217	45.605967
2051891	Pataugeoire	Parc de la Bruère	Mercier–Hochelaga-Maisonneuve	2 150, Rue Liébert	Municipale	Municipale	303352,2138	5050433,239		-73.518559	45.5938
5089500	Pataugeoire	Maisonneuve	Mercier–Hochelaga-Maisonneuve	4 350, Rue de Rouen	Municipale	Privé	301520,9715	5046038,005		-73.542011	45.554247
2055167	Pataugeoire	Parc Jean-Amyot	Mercier–Hochelaga-Maisonneuve	6 110, Rue de Marseille	Municipale	Municipale	301704,6533	5048454,028		-73.539669	45.575987
2055025	Pataugeoire	Parc Pierre-Bédard	Mercier–Hochelaga-Maisonneuve	5 855, Rue Turenne	Municipale	Municipale	300513,0846	5048665,368		-73.554932	45.57788
5032287	Pataugeoire	Parc Saint-Victor	Mercier–Hochelaga-Maisonneuve	9 175, Rue Hochelaga	Municipale	Municipale	303417,491	5051955,176		-73.517731	45.607496
5070879	Pataugeoire	Parc Raymond-Préfontaine	Mercier–Hochelaga-Maisonneuve	2 300, Rue Dézéry	Municipale	Municipale	300696,0489	5044650,821		-73.552553	45.541753
2024523	Pataugeoire	Parc Rougemont	Mercier–Hochelaga-Maisonneuve	1 900, Rue Bossuet	Municipale	Municipale	302644,7225	5047717,807		-73.527622	45.569359
2064425	Pataugeoire	Parc St-Aloysius	Mercier–Hochelaga-Maisonneuve	1 650, Avenue Valois	Municipale	Municipale	301628,1089	5045103,194		-73.540621	45.545834
2145363	Pataugeoire	Parc Pierre-Bernard	Mercier–Hochelaga-Maisonneuve	3 170, Boulevard Pierre-Bernard	Municipale	Municipale	302830,7633	5051697,441		-73.525255	45.605173
2020120	Pataugeoire	Parc St-Clément	Mercier–Hochelaga-Maisonneuve	1 855, Rue de Ville-Marie	Municipale	Municipale	302173,727	5046691,598		-73.533651	45.560125
2055878	Pataugeoire	Parc Saint-Donat	Mercier–Hochelaga-Maisonneuve	6 800, Rue de Marseille	Municipale	Municipale	301978,4233	5049185,918		-73.536163	45.582566
2064032	Jeu d'eau	Parc Jacques-Blanchet	Mercier–Hochelaga-Maisonneuve	Avenue Jeanne-d’Arc	Municipale	Municipale	301598,8934	5045446,757		-73.541008	45.54892
2071510	Jeu d'eau	Parc Morgan	Mercier–Hochelaga-Maisonneuve	4 370, Rue Sainte-Catherine Est	Municipale	Municipale	302221,9549	5045723,134		-73.533031	45.551415
5089063	Jeu d'eau	Parc Théodore	Mercier–Hochelaga-Maisonneuve	2 525, Rue Théodore	Municipale	Municipale	301366,8682	5046788,597		-73.543988	45.560995
2063743	Jeu d'eau	Parc Hochelaga	Mercier–Hochelaga-Maisonneuve	Angle Lafontaine et Davidson	Municipale	Municipale	301319,5393	5044694,075		-73.544576	45.542152
2051168	Jeu d'eau	Parc Beauclerk	Mercier–Hochelaga-Maisonneuve	1 855, Avenue Émile-Legrand	Municipale	Municipale	303213,3204	5049008,241		-73.520336	45.580978
2006464	Jeu d'eau	Parc Liébert	Mercier–Hochelaga-Maisonneuve	8 055, Avenue Pierre-de-Coubertin	Municipale	Municipale	302664,8484	5050703,095		-73.527379	45.596228
2076909	Piscine extérieure	Parc Charleroi	Montréal-Nord	10 975, Avenue Alfred	Municipale	Municipale	295260,6871	5051093,663		-73.622288	45.599675
2077664	Piscine extérieure	Parc Saint-Laurent	Montréal-Nord	11 614, Avenue Salk	Municipale	Municipale	294754,4465	5051730,244		-73.628788	45.6054
2068769	Piscine extérieure	Parc Ottawa	Montréal-Nord	10 341, Avenue Lausanne	Municipale	Municipale	293670,906	5049138,004		-73.642625	45.58206
2083978	Piscine extérieure	Parc Primeau	Montréal-Nord	4 209, Rue de Castille	Municipale	Municipale	294182,9617	5050367,533		-73.636091	45.593127
2076909	Pataugeoire	Parc Charleroi	Montréal-Nord	10 975, Avenue Alfred	Municipale	Municipale	295260,6871	5051093,663		-73.622288	45.599675
2080581	Pataugeoire	Parc Henri-Bourassa	Montréal-Nord	6 100, Rue Pascal	Municipale	Municipale	295254,9627	5052882,425		-73.6224	45.615773
2079610	Pataugeoire	Parc Lacordaire	Montréal-Nord	12 576, Boulevard Lacordaire	Municipale	Municipale	294499,0455	5052934,31		-73.632082	45.61623
2080320	Pataugeoire	Parc Le Carignan	Montréal-Nord	11 481, Rue P.M.-Favier	Municipale	Municipale	295783,9769	5052255,545		-73.615606	45.610138
2083497	Pataugeoire	Parc Ménard	Montréal-Nord	3 781, Place Ménard	Municipale	Municipale	293891,0207	5049690,967		-73.639806	45.587031
2081040	Pataugeoire	Parc Monty	Montréal-Nord	12 357, Avenue Monty	Municipale	Municipale	295458,2261	5053477,193		-73.619796	45.62113
2068113	Pataugeoire	Parc Oscar	Montréal-Nord	10 660, Boulevard Saint-Michel	Municipale	Municipale	293219,8302	5049150,275		-73.648405	45.582161
2068769	Pataugeoire	Parc Ottawa	Montréal-Nord	10 400, Avenue Belleville	Municipale	Municipale	293670,906	5049138,004		-73.642625	45.58206
2070945	Pataugeoire	Parc Pilon	Montréal-Nord	11 135, Avenue des Récollets	Municipale	Municipale	293702,5631	5050411,397		-73.642244	45.593515
2083978	Pataugeoire	Parc Primeau	Montréal-Nord	4 209, Rue de Castille	Municipale	Municipale	294182,9617	5050367,533		-73.636091	45.593127
2070718	Pataugeoire	Parc Sabrevois	Montréal-Nord	10 110, Avenue des Récollets	Municipale	Municipale	294408,9079	5049300,149		-73.633172	45.583529
2077664	Pataugeoire	Parc Saint-Laurent	Montréal-Nord	11 614, Avenue Salk	Municipale	Municipale	294754,4465	5051730,244		-73.628788	45.6054
2084556	Pataugeoire	Parc Sauvé	Montréal-Nord	4 701, Rue de Bayonne	Municipale	Municipale	294162,877	5051110,104		-73.636364	45.599812
2081039	Pataugeoire	Parc Tardif	Montréal-Nord	6 455, Rue Tardif	Municipale	Municipale	295685,9704	5053165,013		-73.616879	45.618325
2068769	Jeu d'eau	Parc Ottawa	Montréal-Nord	10 400, Avenue Belleville	Municipale	Municipale	293670,906	5049138,004		-73.642625	45.58206
3036307	Piscine extérieure	Parc John-F-Kennedy	Outremont	860, Avenue Outremont	Municipale	Privé	295743,057	5042393,953		-73.615936	45.521396
3036307	Pataugeoire	Parc John-F.-Kennedy	Outremont	860, Avenue Outremont	Municipale	Privé	295743,057	5042393,953		-73.615936	45.521396
5072848	Piscine intérieure	Centre aquatique Rivières-des-Prairies	Rivière-des-Prairies–Pointe-aux-Trembles	12 515, Boulevard Rodolphe-Forget	Municipale	Municipale	298578,6641	5056952,178	Complexe aquatique	-73.579832	45.652434
5029269	Piscine intérieure	Piscine intérieure Roussin	Rivière-des-Prairies–Pointe-aux-Trembles	12 125, Rue Notre-Dame Est	Municipale	Municipale	305485,4766	5055655,173	Piscine récréative	-73.491213	45.640791
2072528	Piscine extérieure	Parc Richelieu	Rivière-des-Prairies–Pointe-aux-Trembles	13 600, Rue Forsyth	Municipale	Municipale	304425,0067	5058203,099		-73.504812	45.663718
5070958	Piscine extérieure	Parc Alexis-Carrel	Rivière-des-Prairies–Pointe-aux-Trembles	12 550, Avenue Alexis-Carrel	Municipale	Municipale	297878,4231	5056038,26		-73.5888	45.644203
5082406	Piscine extérieure	Parc Maria-Goretti	Rivière-des-Prairies–Pointe-aux-Trembles	488, 85e Avenue	Municipale	Municipale	305791,8604	5061314,139		-73.487276	45.691711
2079739	Piscine extérieure	Parc Saint-Georges	Rivière-des-Prairies–Pointe-aux-Trembles	13 050, Rue Prince-Albert	Municipale	Municipale	305389,3259	5057137,776		-73.492443	45.654126
2072528	Pataugeoire	Parc Richelieu	Rivière-des-Prairies–Pointe-aux-Trembles	13 600, Rue Forsyth	Municipale	Municipale	304425,0067	5058203,099		-73.504812	45.663718
5070958	Pataugeoire	Parc Alexis-Carrel	Rivière-des-Prairies–Pointe-aux-Trembles	12 550, Avenue Alexis-Carrel	Municipale	Municipale	297878,4231	5056038,26		-73.5888	45.644203
5082406	Pataugeoire	Parc Maria-Goretti	Rivière-des-Prairies–Pointe-aux-Trembles	488, 85e Avenue	Municipale	Municipale	305791,8604	5061314,139		-73.487276	45.691711
5015454	Pataugeoire	Saint-Jean-Baptiste	Rivière-des-Prairies–Pointe-aux-Trembles	1 048, Boulevard Saint-Jean-Baptiste	Municipale	Municipale	304846,2071	5055625,72		-73.49941	45.640521
2079739	Pataugeoire	Parc St-Georges	Rivière-des-Prairies–Pointe-aux-Trembles	13 050, Rue Prince-Albert	Municipale	Municipale	305389,3259	5057137,776		-73.492443	45.654126
2077340	Jeu d'eau	Parc Montmartre	Rivière-des-Prairies–Pointe-aux-Trembles	14555, rue de Montigny	Municipale	Municipale	304974,3777	5059549,579		-73.497767	45.67583
5072912	Jeu d'eau	Parc Marie-Coron	Rivière-des-Prairies–Pointe-aux-Trembles	Rue Victor-E.-Beaupré	Municipale	Municipale	304818,6907	5057746,325		-73.499769	45.659606
2099605	Jeu d'eau	Parc Victoria-Girard	Rivière-des-Prairies–Pointe-aux-Trembles	Rue Jean-Leduc	Municipale	Municipale	304230,3133	5057183,641		-73.507314	45.65454
5108885	Jeu d'eau	Parc Dollard-Morin	Rivière-des-Prairies–Pointe-aux-Trembles	Rue La Valinière	Municipale	Municipale	297494,9257	5054152,178		-73.593698	45.627228
2151127	Jeu d'eau	Parc Pierre-Blanchet	Rivière-des-Prairies–Pointe-aux-Trembles	Avenue Pierre-Blanchet	Municipale	Municipale	296700,2167	5054264,739		-73.603883	45.628227
5020825	Jeu d'eau	Parc Des Pins	Rivière-des-Prairies–Pointe-aux-Trembles	3995 Rue 42e	Municipale	Municipale	303514,0623	5058559,893		-73.516504	45.66692
5103407	Piscine intérieure	Centre sportif Père-Marquette	Rosemont–La Petite-Patrie	1 600, Rue Drucourt	Municipale	Municipale	298337,0379	5045796,851	Piscine récréative	-73.582776	45.552047
3069278	Piscine intérieure	Centre Rosemont	Rosemont–La Petite-Patrie	6 101, 8e Avenue	Municipale	Municipale	297313,3307	5044453,022	Piscine récréative	-73.59587	45.539952
3044179	Piscine intérieure	Bain St-Denis	Rosemont–La Petite-Patrie	7 075, Rue Saint-Hubert	Municipale	Municipale	296061,2442	5044501,726	Piscine récréative	-73.611903	45.540369
2008973	Piscine extérieure	Parc Le Pélican	Rosemont–La Petite-Patrie	2 560, Rue Masson	Municipale	Municipale	298993,5628	5044898,465		-73.574363	45.543972
2011678	Piscine extérieure	Parc Joseph-Paré	Rosemont–La Petite-Patrie	6 525, Rue 41e	Municipale	Municipale	299223,6249	5048331,366		-73.571457	45.574865
2008973	Pataugeoire	Parc Pélican *	Rosemont–La Petite-Patrie	2 560, Rue Masson	Municipale	Municipale	298993,5628	5044898,465		-73.574363	45.543972
3069220	Pataugeoire	Parc Père-Marquette	Rosemont–La Petite-Patrie	1 555, Rue des Carrières	Municipale	Municipale	297740,6679	5044324,939		-73.590401	45.538795
2020249	Pataugeoire	Parc De L’Ukraine	Rosemont–La Petite-Patrie	6 041, 12e Avenue	Municipale	Municipale	298363,3005	5046145,185		-73.582448	45.555187
2011915	Pataugeoire	Parc Beaubien	Rosemont–La Petite-Patrie	6 633, 6e Avenue	Municipale	Municipale	297777,7771	5045968,228		-73.589951	45.553589
2010590	Pataugeoire	Parc Cité-Jardin	Rosemont–La Petite-Patrie	5 220, Boulevard Rosemont	Municipale	Municipale	299962,0804	5047932,727		-73.561985	45.57128
2011597	Pataugeoire	De la Louisiane	Rosemont–La Petite-Patrie	6 244, 35e Avenue	Municipale	Municipale	299154,4545	5047604,196		-73.572333	45.568323
2067929	Pataugeoire	Léon-Provencher	Rosemont–La Petite-Patrie	5 555, Boulevard Pie-IX	Municipale	Municipale	299808,6205	5046893,887		-73.563947	45.56193
5071905	Pataugeoire	Parc Lafond	Rosemont–La Petite-Patrie	3 500, Avenue Laurier Est	Municipale	Municipale	299478,4815	5045795,841		-73.568162	45.552047
3080482	Pataugeoire	Parc De Gaspé	Rosemont–La Petite-Patrie	6 655, Avenue De Gaspé	Municipale	Municipale	296282,86	5043707,21		-73.609059	45.533227
2011678	Pataugeoire	Parc Joseph-Paré	Rosemont–La Petite-Patrie	6 225, Rue 41e	Municipale	Municipale	299223,6249	5048331,366		-73.571457	45.574865
2011547	Jeu d'eau	Parc Étienne-Desmarteau	Rosemont–La Petite-Patrie	20e Avenue / Rue Beaubien Est	Municipale	Municipale	298533,3149	5046592,138		-73.580276	45.559211
5078319	Jeu d'eau	Parc Jean-Duceppe	Rosemont–La Petite-Patrie	Avenue du Mont-Royal Est / Rue André-Laurendeau	Municipale	Municipale	299647,0029	5044844,499		-73.565988	45.543491
3010833	Jeu d'eau	Parc Saint-Édouard	Rosemont–La Petite-Patrie	Rue Saint-André / Rue Saint-Zotique Est	Municipale	Municipale	296465,3211	5044312,278		-73.606727	45.538673
5016060	Jeu d'eau	Parc Laurier-Charlemagne	Rosemont–La Petite-Patrie	Avenue Laurier / Avenue Charlemagne	Municipale	Municipale	299564,6599	5046329,973		-73.567067	45.556853
5015690	Piscine extérieure	Parc Marlborough	Saint-Laurent	2 105, Rue Beauzèle	Municipale	Municipale	287570,3008	5042655,268		-73.720565	45.5236
5016554	Piscine extérieure	Parc Hartenstein	Saint-Laurent	1 505, Rue Cardinal	Municipale	Municipale	289936,1662	5042046,109		-73.690259	45.518174
4157130	Piscine extérieure	Parc Noël-Nord	Saint-Laurent	2 900, Rue Baker	Municipale	Municipale	286990,7657	5042002,465		-73.727966	45.51771
4098279	Piscine extérieure	Parc Chamberland	Saint-Laurent	800, Rue Dorais	Municipale	Municipale	289960,7379	5040358,736		-73.689901	45.502986
5082586	Piscine extérieure	Parc Painter	Saint-Laurent	260, Rue Marcotte	Municipale	Municipale	291051,1904	5043134,284		-73.676018	45.527988
5016546	Piscine extérieure	Parc St-Laurent	Saint-Laurent	845, Rue Poirier	Municipale	Municipale	290176,1758	5042982,52		-73.687215	45.526602
4034718	Piscine extérieure	Parc Decelles	Saint-Laurent	845, Rue Roy	Municipale	Municipale	290861,7018	5041517,458		-73.678404	45.513433
5015687	Piscine extérieure	Parc Bourbonnière	Saint-Laurent	2800, Rue Cazeneuve	Municipale	Municipale	288959,4085	5040233,074		-73.702706	45.501839
4157130	Pataugeoire	Parc Noël-Nord	Saint-Laurent	2 900, Rue Baker	Municipale	Municipale	286977,6179	5041892,154		-73.728128	45.516719
5015690	Pataugeoire	Parc Malborough	Saint-Laurent	2 105, Rue Beauzèle	Municipale	Municipale	287530,7419	5042529,966		-73.721073	45.522465
5016546	Pataugeoire	Parc St-Laurent	Saint-Laurent	845, Rue Poirier	Municipale	Municipale	290219,2815	5043106,542		-73.686668	45.527719
5016554	Pataugeoire	Parc Hartenstein	Saint-Laurent	1 505, Rue Cardinal	Municipale	Municipale	289849,7238	5042125,157		-73.691375	45.518883
4032625	Pataugeoire	Parc Alexis-Nihon	Saint-Laurent	2 999, Rue Badeaux	Municipale	Municipale	289920,3954	5039729,605		-73.690393	45.497325
4098279	Pataugeoire	Parc Chamberland	Saint-Laurent	800, Rue Dorais	Municipale	Municipale	290045,9183	5040313,592		-73.688812	45.502583
4034718	Pataugeoire	Parc Decelles	Saint-Laurent	845, Rue Roy	Municipale	Municipale	290959,0237	5041513,418		-73.67715	45.513399
5015687	Pataugeoire	Parc Bourbonnière	Saint-Laurent	2800, Rue Cazeneuve	Municipale	Municipale	288998,5467	5040326,033		-73.70221	45.502677
5082586	Pataugeoire	Parc Painter	Saint-Laurent	260, Rue Marcotte	Municipale	Municipale	291095,7066	5043264,457		-73.675458	45.529158
5066716	Jeu d'eau	Parc Harris	Saint-Laurent	1 365, Avenue O’Brien	Municipale	Municipale	290338,3295	5042146,839		-73.685116	45.519083
4034718	Jeu d'eau	Parc Decelles	Saint-Laurent	845, Rue Roy	Municipale	Municipale	290899,1574	5041637,99		-73.677921	45.514514
4040258	Jeu d'eau	Parc Gohier	Saint-Laurent	730, Rue Buchanam	Municipale	Municipale	290623,8945	5040922,751		-73.681433	45.508075
5016554	Jeu d'eau	Parc Hartenstein	Saint-Laurent	1 505, Rue Cardinal	Municipale	Municipale	289888,1774	5041938,969		-73.69087	45.517202
4099482	Jeu d'eau	Parc Goulet	Saint-Laurent	1 695, Rue d’Oxford	Municipale	Municipale	289041,7102	5042480,411		-73.701729	45.52206
5015690	Jeu d'eau	Parc Marlborough	Saint-Laurent	2 105, Rue Beauzèle	Municipale	Municipale	287626,9008	5042532,366		-73.719844	45.522494
4030630	Jeu d'eau	Parc Poirier	Saint-Laurent	900, Rue Trudeau	Municipale	Municipale	292095,1389	5041611,817		-73.662613	45.514303
4030363	Jeu d'eau	Parc Beaulac	Saint-Laurent	1 145, Rue Élizabeth	Municipale	Municipale	290934,0231	5042211,675		-73.677489	45.51968
4029051	Jeu d'eau	Parc Houde	Saint-Laurent	2 100, Rue Saint-Louis	Municipale	Municipale	290675,397	5040136,425		-73.680745	45.501003
4157130	Jeu d'eau	Parc Noël-Nord	Saint-Laurent	2 900, rue Baker	Municipale	Municipale	286879,966	5041958,921		-73.729385	45.517311
5082586	Jeu d'eau	Parc Painter	Saint-Laurent	260, rue Marcotte	Municipale	Municipale	290955,6502	5043241,505		-73.67725	45.528948
5016546	Jeu d'eau	Parc Saint-Laurent	Saint-Laurent	845, rue Poirier	Municipale	Municipale	290047,9639	5043021,643		-73.688868	45.52695
2090635	Piscine intérieure	Piscine intérieure de Saint-Léonard	Saint-Léonard	5 115, Rue des Galets	Municipale	Privé	297141,8069	5049498,419	Complexe aquatique	-73.598152	45.585346
2095006	Piscine extérieure	Parc Ferland	Saint-Léonard	6 020, Boulevard Lavoisier	Municipale	Privé	297176,1447	5050736,338		-73.597723	45.596487
2087210	Piscine extérieure	Parc G. Garibaldi	Saint-Léonard	7 125, Rue Liénart	Municipale	Privé	299217,3232	5049704,338		-73.57155	45.58722
2085259	Piscine extérieure	Parc Ladauversière	Saint-Léonard	7 560, Boulevard Lacordaire	Municipale	Privé	298302,2547	5049070,747		-73.583268	45.581507
2094987	Piscine extérieure	Parc Pie XII	Saint-Léonard	5 200, Boulevard Lavoisier	Municipale	Privé	296410,0821	5049848,472		-73.607526	45.588487
2082478	Piscine extérieure	Parc Hébert	Saint-Léonard	7 655, Rue Colbert	Municipale	Privé	297567,1893	5048112,095		-73.592672	45.572879
2085259	Pataugeoire	Parc Ladauversière	Saint-Léonard	7 560, Boulevard Lacordaire	Municipale	Privé	298302,2547	5049070,747		-73.583268	45.581507
2094987	Pataugeoire	Parc Pie XII	Saint-Léonard	5 200, Boulevard Lavoisier	Municipale	Privé	296410,0821	5049848,472		-73.607526	45.588487
2095006	Jeu d'eau	Parc Ferland	Saint-Léonard	6 020, Boulevard Lavoisier	Municipale	Privé	297176,1447	5050736,338		-73.597723	45.596487
2087210	Jeu d'eau	Parc G. Garibaldi	Saint-Léonard	7 125, Rue Liénart	Municipale	Privé	299217,3232	5049704,338		-73.57155	45.58722
2092471	Jeu d'eau	Parc Coubertin	Saint-Léonard	4 755, Rue Valéry	Municipale	Privé	296256,853	5049470,966		-73.609493	45.585084
2088720	Jeu d'eau	Parc Luigi Pirandello	Saint-Léonard	4 550, Rue de Compiègne	Municipale	Privé	296721,1839	5048699,381		-73.603521	45.578152
2091811	Jeu d'eau	Parc Delorme	Saint-Léonard	6 060, Rue de Honfleur	Municipale	Privé	297848,3497	5050148,451		-73.589101	45.591203
5073228	Piscine extérieure	Parc Arthur-Therrien	Verdun	10, Rue Hickson	Municipale	Municipale	299989,1927	5036132,148		-73.561523	45.465099
5087211	Piscine extérieure	Parc Elgar	Verdun	260, Rue Elgar	Municipale	Municipale	301054,5703	5035265,394		-73.547897	45.457304
1053978	Piscine extérieure	Parc de la Fontaine	Verdun	550, Place de la Fontaine	Municipale	Municipale	301305,8553	5035965,042		-73.544693	45.463605
5073228	Piscine extérieure	Natatorium de Verdun	Verdun	6 500, Boulevard LaSalle	Municipale	Municipale	298938,9342	5033764,13		-73.574935	45.443783
5073228	Pataugeoire	Parc Arthur-Therrien	Verdun	10, Rue Hickson	Municipale	Municipale	299428,7771	5034263,288		-73.568677	45.448277
5087211	Pataugeoire	Parc Elgar	Verdun	260, Rue Elgar	Municipale	Municipale	300594,0254	5035019,351		-73.553777	45.455088
1053978	Pataugeoire	Parc de la Fontaine	Verdun	550, Place de la Fontaine	Municipale	Municipale	301305,8553	5035965,042		-73.544693	45.463605
5073228	Pataugeoire	Natatorium de Verdun	Verdun	6 500, Boulevard LaSalle	Municipale	Municipale	299428,7771	5034263,288		-73.568677	45.448277
1051139	Jeu d'eau	Parc Wilson	Verdun	1075-A, Avenue Brown	Municipale	Municipale	298598,757	5034296,841		-73.579288	45.448567
5073228	Jeu d'eau	Natatorium Verdun	Verdun	6 500, Boulevard LaSalle	Municipale	Municipale	299428,7771	5034263,288		-73.568677	45.448277
5073228	Jeu d'eau	Parc Mgr J.A. Richard	Verdun	5 040, Boulevard LaSalle	Municipale	Municipale	299428,7771	5034263,288		-73.568677	45.448277
5073228	Jeu d'eau	Parc Arthur-Therrien	Verdun	3 750, Boulevard Gaétan-Laberge	Municipale	Municipale	299428,7771	5034263,288		-73.568677	45.448277
1116730	Jeu d'eau	Parc de La Reine Élizabeth	Verdun	1 650, Rue Crawford	Municipale	Municipale	297575,3881	5033164,482		-73.592349	45.438371
1050716	Jeu d'eau	Parc Normand Dawe	Verdun	1 060, Rue Woodland	Municipale	Municipale	298647,5623	5034733,453		-73.578667	45.4525
1050247	Jeu d'eau	Parc Cooney	Verdun	1 175, Rue Melrose	Municipale	Municipale	298518,4184	5034953,364		-73.580319	45.454479
5089791	Jeu d'eau	Parc Duquette	Verdun	900, Rue Bannantyne	Municipale	Municipale	298946,1185	5036228,968		-73.574862	45.465955
5019871	Jeu d'eau	Parc Joanette	Verdun	Rue Hickson / Rue Ethel	Municipale	Municipale	299446,643	5036102,175		-73.568466	45.464826
5036992	Jeu d'eau	Parc de L’Épervière	Verdun	Rue de la Vigne	Municipale	Municipale	301121,4972	5036178,403		-73.547047	45.46552
1048235	Jeu d'eau	Parc Willibrord	Verdun	800, Rue Willibrord	Municipale	Municipale	299023,4547	5035467,584		-73.573868	45.459108
5019334	Jeu d'eau	Parc Poirier	Verdun	3215 boul Lasalle	Municipale	Municipale	299396,4767	5036784,661		-73.569113	45.470962
5073228	Jeu d'eau	Parc de l’Honorable-George-O’Reilly	Verdun	4390-4400, Boul Lasalle	Municipale	Municipale	299428,7771	5034263,288		-73.568677	45.448277
5073228	Jeu d'eau	Parc L’orée du Fleuve	Verdun	Chemin de la Pointe-Sud	Municipale	Municipale	299428,7771	5034263,288		-73.568677	45.448277
1018523	Piscine intérieure	Bain Quintal	Ville-Marie	1 550, Rue Dufresne	Municipale	Municipale	300975,7246	5043217,592	Piscine récréative	-73.548969	45.52886
5037561	Piscine intérieure	Jean-Claude-Malépart	Ville-Marie	2 633, Rue Ontario Est	Municipale	OBNL	300608,0475	5043834,452	Piscine compétitive	-73.553673	45.534409
5072841	Piscine extérieure	Complexe aquatique – Société du parc Jean-Drapeau	Ville-Marie	1, Circuit Gilles-Villeneuve,	Municipale	Parapublique	302127,3302	5041516,018	"Île Sainte-Hélène"""	-73.534212	45.513559
5072841	Piscine extérieure	Complexe aquatique – Société du parc Jean-Drapeau	Ville-Marie	1, Circuit Gilles-Villeneuve,	Municipale	Parapublique	302127,3302	5041516,018	"Île Sainte-Hélène"""	-73.534212	45.513559
5071428	Pataugeoire	Parc des Vétérans	Ville-Marie	1 655, Avenue Papineau	Municipale	Municipale	300488,5129	5042717,424		-73.5552	45.524357
5037561	Pataugeoire	Parc Médéric-Martin	Ville-Marie	2 255, Rue du Havre	Municipale	Municipale	300608,0475	5043834,452		-73.553673	45.534409
5037532	Pataugeoire	Olivier-Robert	Ville-Marie	2 325, Boulevard de Maisonneuve Est	Municipale	Municipale	300924,1231	5043167,657		-73.549622	45.528409
1021708	Jeu d'eau	Parc Toussaint-Louverture	Ville-Marie	137 Boulevard de Maisonneuve	Municipale	Municipale	299739,8542	5041399,457		-73.564774	45.512492
1022387	Jeu d'eau	Parc des Royaux	Ville-Marie	Ave. De Lorimier/De Rouen	Municipale	Municipale	300143,9394	5043327,453		-73.559622	45.529844
1107076	Jeu d'eau	Parc des Joyeux-Vikings	Ville-Marie	Rue Beaudry	Municipale	Municipale	300122,9639	5042331,187		-73.559881	45.520882
1110307	Jeu d'eau	Parc Persillier-Lachapelle	Ville-Marie	Rue Plessis	Municipale	Municipale	299973,1167	5042744,577		-73.561793	45.524597
5036733	Jeu d'eau	Parc des Faubourgs	Ville-Marie	Rue Dorion	Municipale	Municipale	300366,0914	5042959,867		-73.556764	45.526534
5068368	Jeu d'eau	Parc Marcelle-Barthe	Ville-Marie	Rue Wolfe	Municipale	Municipale	300011,0177	5042269,521		-73.561301	45.520323
3012132	Piscine intérieure	Joseph-Charbonneau	Villeray–Saint-Michel–Parc-Extension	8 200, Rue Rousselot	Municipale	Municipale	295181,1815	5045689,471	Piscine compétitive	-73.623195	45.551048
2017640	Piscine intérieure	René-Goupil	Villeray–Saint-Michel–Parc-Extension	4 250, Rue du Parc-René-Goupil	Municipale	Municipale	296151,4725	5048669,049	Piscine récréative	-73.610824	45.577875
5101787	Piscine intérieure	Georges-Vernot	Villeray–Saint-Michel–Parc-Extension	8 475, 13e Avenue	Municipale	Municipale	295862,3359	5047623,838	Piscine compétitive	-73.614508	45.568459
5126259	Piscine intérieure	St-Roch	Villeray–Saint-Michel–Parc-Extension	400, Avenue Ball	Municipale	Privé	294567,6056	5043571,606	Piscine récréative	-73.631014	45.53198
3014811	Piscine intérieure	Patro Le Prévost	Villeray–Saint-Michel–Parc-Extension	7 355, Avenue Christophe-Colomb	Municipale	OBNL	295932,0012	5044873,002	Piscine récréative	-73.613562	45.543715
2020378	Piscine extérieure	Parc Sainte-Lucie	Villeray–Saint-Michel–Parc-Extension	9 093, 16e Avenue	Municipale	Municipale	294906,5867	5048430,506		-73.626772	45.575708
2062331	Piscine extérieure	Parc François-Perrault	Villeray–Saint-Michel–Parc-Extension	7 525, Rue François-Perrault	Municipale	Municipale	296911,0355	5046969,854		-73.601059	45.562587
3123106	Piscine extérieure	Parc Jarry	Villeray–Saint-Michel–Parc-Extension	205, Rue Faillon Ouest	Municipale	Municipale	294739,0881	5043921,28		-73.628819	45.535132
3123106	Pataugeoire	Parc Jarry	Villeray–Saint-Michel–Parc-Extension	7 920, Boulevard Saint-Laurent	Municipale	Municipale	294848,0731	5043953,133		-73.627424	45.535422
3014194	Pataugeoire	Parc De Normanville	Villeray–Saint-Michel–Parc-Extension	7 480, Rue De Normanville	Municipale	Municipale	295760,9641	5045092,753		-73.615768	45.545683
2011794	Pataugeoire	Parc Nicolas-Tillemont	Villeray–Saint-Michel–Parc-Extension	7 833, Avenue Des Érables	Municipale	Municipale	296042,1988	5046117,172		-73.612175	45.55491
2020378	Pataugeoire	Parc Ste-Lucie	Villeray–Saint-Michel–Parc-Extension	9 093, 16e Avenue	Municipale	Municipale	294992,0311	5048352,828		-73.625669	45.575007
2026106	Pataugeoire	Parc Sainte-Yvette	Villeray–Saint-Michel–Parc-Extension	8 950, 10e Avenue	Municipale	Municipale	294969,3317	5047770,472		-73.625952	45.56977
2145385	Pataugeoire	Parc De Sienne	Villeray–Saint-Michel–Parc-Extension	4 151, Rue 53e	Municipale	Municipale	294960,3328	5049199,9		-73.626096	45.582628
2060321	Pataugeoire	Parc Bélair	Villeray–Saint-Michel–Parc-Extension	7 035, 2e Avenue	Municipale	Municipale	297190,0184	5046106,651		-73.597471	45.554825
2062331	Pataugeoire	Parc François-Perrault	Villeray–Saint-Michel–Parc-Extension	7 601, Rue François-Perrault	Municipale	Municipale	297023,1631	5046904,408		-73.599623	45.562003
3013747	Pataugeoire	Parc Turin	Villeray–Saint-Michel–Parc-Extension	7 205, Rue Chambort	Municipale	Municipale	296158,1454	5045059,33		-73.610671	45.545391
2017640	Pataugeoire	Parc René-Goupil	Villeray–Saint-Michel–Parc-Extension	4 250, Rue du Parc-René-Goupil	Municipale	Municipale	296249,3471	5048618,304		-73.609568	45.577418
5169307	Jeu d'eau	Parc Champdoré	Villeray–Saint-Michel–Parc-Extension	Rue Champdoré	Municipale	Municipale	294208,4243	5047640,399		-73.635699	45.568589
3082239	Jeu d'eau	Parc de Lestre	Villeray–Saint-Michel–Parc-Extension	Avenue Ball	Municipale	Municipale	294383,5031	5043395,639		-73.633366	45.530394
5082525	Jeu d'eau	Parc Howard	Villeray–Saint-Michel–Parc-Extension	Avenue de l’Épée	Municipale	Municipale	273689,5099	5041122,18		-73.898158	45.509324
5102653	Jeu d'eau	Ovila-Légaré	Villeray–Saint-Michel–Parc-Extension	Rue 51e	Municipale	Municipale	295162,0372	5049044,645		-73.623504	45.581237
0	Jeux d'eau	Jeux d'eau St-Simon-Apôtre	Ahuntsic/Carterville	260 rue Legendre O			293178,8526	5044454,912		-73.648819	45.539904
0	Jeux d'eau	Jeux d'eau Saint-Alphonse	Ahuntsic/Carterville	8888 de Châteaubrian			293997,7952	5045460,699		-73.638354	45.54897
0	Pataugeoire	Pataugeoire du Sault-au-récollet	Ahuntsic/Carterville	10550 rue St-Firmin			292697,7281	5047948,679		-73.655064	45.571336
0	Piscine intérieure	Piscine Sophie-Barat	Ahuntsic/Cartierville	10851 ave Saint-Charle			291678,9452	5046897,998		-73.668092	45.56186
0	Piscine extérieure, Jeux d'eau	Piscine Marcelin-Wilson	Ahuntsic/Cartierville	1655 rue Dudemaine			290043,0149	5044389,975		-73.68896	45.53926
0	Pataugeoire	Pataugeoire St-Paul de la Croix	Ahuntsic/Cartierville	9900 rue Hamel			292963,1673	5046779,026		-73.651628	45.560821
0	Pataugeoire, Jeux d'eau	Pataugeoire de Mésy	Ahuntsic/Cartierville	12120 rue Grenet			287810,6816	5043384,178		-73.717518	45.530166
0	Pataugeoire	Pataugeoire henri-Julien	Ahuntsic/Cartierville	9300 rue St-Denis			293201,5025	5045269,24		-73.648544	45.547238
0	Pataugeoire, Jeux d'eau	Pataugeoire Ahuntsic	Ahuntsic/Cartierville	10555 rue Lajeunesse			291891,1168	5046147,865		-73.665343	45.555115
0	Jeux d'eau	Jeux d'eau St-Benoit	Ahuntsic/Cartierville	Sauvé Ouest/Meilleur			291809,7388	5044552,941		-73.666351	45.540762
0	Jeux d'eau	Jeux d'eau des Hirondelles	Ahuntsic/Cartierville	Fleury/Larose			293816,6621	5048456,998		-73.640739	45.575926
0	Jeux d'eau	Jeux d'eau St-André-Apôtre	Ahuntsic/Cartierville	215 Prieur Ouest			291475,4592	5045137,048		-73.670644	45.546019
0	Piscine extérieure	Piscine Gabriel-Lalemant	Ahuntsic/Cartierville	2350 rue Sauvé est			293686,6356	5047933,398		-73.642393	45.571217
0	Piscine intérieure	Piscine Centre Claude Robillard	Ahuntsic/Cartierville	1000 ave Émile-Journau			294043,862	5045850,206		-73.637773	45.55248
0	Piscine extérieure	Piscine du Parc Chénier	Anjou	5555 Ave de l'Aréna			301427,3283	5051471,599		-73.543239	45.603134
0	Piscine extérieure	Piscine Parc des Roseraies	Anjou	7070 ave de la Nantais			300412,1252	5050333,089		-73.556241	45.592888
0	Piscine extérieure	Piscine Parc Lucie-Bruneau	Anjou	7051 Ave de l'Alsace			298267,6613	5051596,941		-73.58375	45.604236
0	Piscine extérieure	Piscine parc Roger-Rousseau	Anjou	7501 Ave Rondeau			300827,3044	5052929,01		-73.550943	45.61625
0	Piscine extérieure	Piscine parc Verdelles	Anjou	8441 Place Verdelle			300927,2163	5052088,219		-73.549654	45.608683
0	Pataugeoire	Parc du Bocage	Anjou	6200 Ave du Bocage			300775,3152	5050283,074		-73.551588	45.592441
0	Pataugeoire	Parc André-Laurendeau	Anjou	8361 Ave André-Laurendeau			299282,8726	5051697,471		-73.570739	45.605154
0	Pataugeoire, Jeux d'eau	Parc de Talcy	Anjou	7701 Ave Roche sur Yon			300172,3878	5051913,352		-73.559332	45.607104
0	Jeux d'eau	Parc de Peterborough	Anjou	8400 boul Châteauneuf			300482,9205	5052287,118		-73.555361	45.610471
0	Piscine intérieure	Piscine Notre-Dame-de-Grâce	Côte-des-Neiges/Notre-dame-de-Grâce	3760 boul DÉcarie			295896,1706	5037369,268		-73.613886	45.47619
0	Piscine extérieure	Piscine Confédération	Côte-des-Neiges/Notre-dame-de-Grâce	6265 Ave Biermans			294006,6209	5036906,673		-73.63805	45.471997
0	Piscine extérieure	Piscine Kent	Côte-des-Neiges/Notre-dame-de-Grâce	6262 chemin Hudson			294637,0317	5040627,952		-73.630057	45.50549
0	Pataugeoire	Pataugeoire Georges-St-Pierer	Côte-des-Neiges/Notre-dame-de-Grâce	1015 Ave Oxford			296285,2025	5036548,268		-73.608897	45.468807
0	Pataugeoire	Pataugeoire Trenholme	Côte-des-Neiges/Notre-Dame-de-Grâce	6800 Rue Sherbrooke ouest			294497,7835	5035615,938		-73.631743	45.460388
0	Pataugeoire	Pataugeoire Loyola	Côte-des-Neiges/Notre-Dame-de-Grâce	7069 Ave Somerled			293290,6008	5035675,764		-73.647179	45.460909
0	Pataugeoire	Pataugeoire MacDonald	Côte-des-Neiges/Notre-Dame-de-Grâce	5355 Ave Clanranald			294145,803	5038200,768		-73.6363	45.483644
0	Pataugeoire	Pataugeoire Rosemary Brown	Côte-des-Neiges/Notre-Dame-de-Grâce	6665 Ave McLynn			293246,53	5038887,214		-73.647817	45.489811
0	Pataugeoire	Pataugeoire Kent	Côte-des-Neiges/Notre-Dame-de-Grâce	3533 Ave Kent			294379,9398	5040263,207		-73.633351	45.502211
0	Pataugeoire	Pataugeoire Jean-Brillant	Côte-des-Neiges/Notre-Dame-de-Grâce	5220 rue Decelles			295436,0711	5039735,576		-73.619815	45.497475
0	Pataugeoire	Pataugeoire Van Horme	Côte-des-Neiges/notre-Dame-de-Grâce	4800 Ave Van Horme			293985,365	5039159,32		-73.638368	45.492271
0	Jeux d'eau	Jeux d'eau de la Savane	Côte-des-Neiges/Notre-Dame-de-Grâce	5111 rue Paré			292719,5532	5039854,578		-73.654583	45.498504
0	Jeux d'eau	Jeux d'eau MacKenzie King	Côte-des-Neiges/Notre-Dame-de-Grâce	4905 Ave St-Kevin			294401,5257	5038838,769		-73.633039	45.489388
0	Jeux d'eau	Jeux d'eau Notre-Dame-de-Grâce	Côte-des-Neiges/Notre-Dame-de-Grâce	Ave Girouard/Sherbrooke O.			295801,4551	5036963,398		-73.615094	45.472536
0	Piscine extérieure	Piscine Sainte-Geneviève	L'île-Bizard/Sainte-Geneviève	15734 rue de la Caserne			276163,9231	5037999,138		-73.866314	45.481329
0	Piscine extérieure	Piscine l'Île Bizard	L'île-Bizard/Sainte-Geneviève	488 montée de l'Église			274872,0466	5038663,693		-73.882868	45.48725
0	Piscine extérieure	Piscine du parc Lasalle	Lachine	475 10e ave			291156,34	5033137,779		-73.674396	45.438032
0	Piscine extérieure	Piscine du parc Duff Court	Lachine	1830 croissant Roy			290682,0699	5034139,646		-73.680483	45.447039
0	Piscine extérieure	Piscine du parc Kirkland	Lachine	150 rue des Érables			293125,7581	5033989,821		-73.649248	45.445735
0	Pataugeoire	Pataugeoire du parc Carignan	Lachine	4100 rue Provost			288959,3095	5033704,034		-73.702495	45.443088
0	Piscine extérieure		Lachine	Victoria			288977,794	5033449,679		-73.702257	45.440794
0	Piscine extérieure	Piscine du Parc Dixie	Lachine				287701,9852	5033794,542		-73.718579	45.443868
0	Piscine intérieure	Aquadôme (complexe aquatique)	LaSalle	1411 rue Lapierre			296371,0428	5032984,684		-73.607736	45.436738
0	Piscine extérieure	Piscine Hayward	LaSalle	170 ave Orchard			293212,1593	5031397,831		-73.648075	45.422412
0	Piscine extérieure	Piscine Lacharité	LaSalle	55 chemin Latour			295160,5112	5030807,724		-73.623172	45.417132
0	Piscine extérieure	Piscine Lefebvre	LaSalle	8600 rue Hardy			294136,9526	5032633,02		-73.636295	45.433549
0	Piscine extérieure	Piscine Leroux	LaSalle	7540 rue Centrale			297272,914	5032732,87		-73.596216	45.434481
0	Piscine extérieure	Piscine Ménard	LaSalle	300 rue Clément			292860,8551	5032637,661		-73.652603	45.433564
0	Piscine extérieure	Piscine Ouellette	LaSalle	1407 rue Serre			295316,4127	5032527,34		-73.621211	45.432612
0	Piscine extérieure	Piscine Raymond	LaSalle	555 boul Bishop-Power			296833,6415	5031972,827		-73.601814	45.427637
0	Piscine extérieure	Piscine du Parc Riverside	LaSalle				295943,7551	5031139,496		-73.613173	45.42013
0	Pataugeoire	Pataugeoire Préfontaine	Mercie/Hochelaga/Maisonneuve	2300 rue Dézéry			300622,5481	5044657,811		-73.553501	45.541815
0	Piscine intérieure	Piscine Édouart-Montpetit	Mercier-Hochelaga-Maisonneuve				301909,5251	5048414,694		-73.537043	45.575628
0	Piscine intérieure	Piscine Hochelaga	Mercier/Hochelafa/Maisonneuve	1870 rue Davidson			301267,9213	5044709,506		-73.545242	45.542287
0	Piscine extérieure, Pataugeoire	Piscine Maisonneuve	Mercier/hochelaga/Maisonneuve	4350 rue de Rouen			301531,7026	5046071,728		-73.54187	45.554544
0	Piscine intérieure	Bain Morgan	Mercier/Hochelaga/Maisonneuve	1875 Ave Morgan			301806,982	5045951,626		-73.538347	45.553465
0	Pataugeoire	Pataugeoire Pierre-Bédard	Mercier/Hochelaga/Maisonneuve	3585 rue Turenne			300560,628	5048602,552		-73.554329	45.577313
0	Pataugeoire	Pataugeoire Saint-Aloysius	Mercier/Hochelaga/Maisonneuve	1650 Valois			301584,0546	5045118,866		-73.541185	45.545968
0	Pataugeoire	Pataugeoire Saint-Clément	Mercier/Hochelaga/Maisonneuve	1855 rue Ville-Marie			302213,8303	5046635,022		-73.533138	45.559622
0	Pataugeoire	Pataugeoire Jean-Amyot	Mercier/Hochelaga/Maisonneuve	6100 rue de Marseille			301727,2125	5048482,981		-73.539375	45.57624
0	Pataugeoire	Pataugeoire Saint-Victor	Mercier/Hochelaga/Maisonneuve	9175 rue Hochelaga			303441,2627	5051877,518		-73.517423	45.606794
0	Piscine extérieure	Piscine du parc Bellerive	Mercier/Hochelaga/Maisonneuve	notre-Dame			303912,3736	5051746,476		-73.511384	45.605616
0	Pataugeoire	Pataugeoire Rougemont	Mercier/Hochelaga/Maisonneuve	1900 rue Bossuet			302626,8814	5047712,806		-73.527852	45.569314
0	Pataugeoire	Pataugeoire Saint-Donat	Mercier/Hochelaga/Maisonneuve	6800 rue de Marseille			301953,7938	5049264,286		-73.536484	45.583277
0	Pataugeoire	Pataugeoire de la Bruyère	Mercier/Hochelaga/Maisonneuve	2150 rue Liébert			303318,6431	5050508,686		-73.518995	45.594475
0	Pataugeoire	Pataugeoire Pierre-Bernard	Mercier/Hochelaga/Maisonneuve	3170 rue Pierre-Bernard			302759,3989	5051823,333		-73.526166	45.606307
0	Jeux d'eau	Jeux d'eau Parc Beauclerk	Mercier/Hochelaga/Maisonneuve	1855 rue Émile-Legrand			303268,4109	5048988,499		-73.519631	45.580798
0	Jeux d'eau	Jeux d'eau Parc Jacques-Blanchet	Mercier/Hochelaga/Maisonneuve	Jeanne d'arc entre PIX et Lafontaine			301599,7759	5045448,918		-73.540995	45.548938
0	Jeux d'eau	Jeux d'eau Parc Théodore	Mercier/Hochelaga/Maisonneuve	2525 rue Théodore			301412,003	5046738,822		-73.543399	45.560545
0	Jeux d'eau	Jeux d'eau Parc Morgan	Mericer/Hochelaga/Maisonneuve	4370 rue Sainte-Catherine Est			302242,5839	5045711,663		-73.532762	45.551307
0	Piscine extérieure	Piscine du Parc Saint-Laurent	Montréal-nord				294732,8689	5051780,089		-73.629071	45.60585
0	Piscine extérieure	Piscine du parc Charleroi	Montréal-nord				295239,3074	5051014,635		-73.622556	45.598964
0	Piscine extérieure	Piscine du parc Primeau	Montréal-Nord				294181,5595	5050284,745		-73.636102	45.59238
0	Piscine extérieure	Piscine du parc Ottawa	Montréal-nord				293721,9714	5049086,059		-73.641971	45.581593
0	Piscine extérieure, Pataugeoire	Piscine John-F.-Kennedy	Outremont	860 ave Outremont			295755,3965	5042383,172		-73.615782	45.521307
0	Plage	Plage du cap Saint-Jacques	Pierrefonds/Roxborro	21 115 boul Gouin ouest			270202,8135	5035872,453		-73.942413	45.46192
0	Piscine extérieure	Piscine briarwood	Pierrefonds/Roxborro	12421 rue Pavillon			278571,0301	5041552,741		-73.835702	45.513394
0	Piscine extérieure	Piscine Pierrefonds park	Pierrefonds/Roxborro	355 chemin Rive-Boisée			277188,5376	5040003,172		-73.853316	45.499403
0	Piscine extérieure	Piscine Roxboro	Pierrefonds/Roxborro	51 ave Georges-Vanier			280585,3356	5041060,784		-73.809902	45.50904
0	Piscine extérieure	Piscine Thorndale	Pierrefonds/Roxborro	14921 rue Oakwood			276942,6222	5037290,6		-73.856309	45.474981
0	Piscine extérieure	Piscine Valleycrest	Pierrefonds/Roxborro	4600 rue Cageux			275004,0857	5035394,197		-73.880981	45.45784
0	Piscine extérieure	Piscine Versailles	Pierrefonds/Roxborro	13207 rue Desjardins			277550,0531	5041379,655		-73.84876	45.511799
0	Piscine extérieure	Piscine Baldwin	Plateau-Mont-Royal	2330 rue Rachel est			299815,7058	5043900,278		-73.563827	45.534998
0	Piscine extérieure	Piscine Sir-Wilfrid Laurier	Plateau-Mont-Royal	5220 de Bréboeuf			298035,3473	5043619,511		-73.586614	45.532455
0	Pataugeoire	Pataugeoire parc Lafontaine	Plateau-Mont-Royal	1450 rue Rachel est			299272,1251	5043178,959		-73.570771	45.528497
0	Pataugeoire	Pataugeoire Parc Jeanne-Mance	Plateau-Mont-Royal	4220 ave de l'Esplanade			298224,1926	5041675,863		-73.584168	45.514963
0	Jeux d'eau	Jeux d'eau parc Saint-Michel	Plateau-Mont-Royal	5155 rue Saint-Dominique			297591,1506	5042685,821		-73.592285	45.524046
0	Jeux d'eau	Jeux d'eau Parc Alfonse télésphore-Lépine	Plateau-Mont-Royal	5195 ave Gaspé			297562,8259	5042891,421		-73.592659	45.525899
0	Jeux d'eau	jeux d'eau Parc Clark	Plateau-Mont-Royal	5888 rue Clark			296630,9556	5043064,027		-73.604593	45.527445
0	Jeux d'eau	Jeux d'eau Parc Gilles-Lefebvre	Plateau-Mont-Royal	4793 rue Heri-Julien			298112,3124	5042678,95		-73.585615	45.523988
0	Piscine extérieure	Piscine Alexis-Carrel	Rivière-des-Prairies/Pointe-aux-Trembles	12500 rue Alexis-Carrel			297882,5802	5056031,409		-73.588748	45.64414
0	Piscine extérieure	Piscine St-Georges	Rivière-des-Prairies/Pointe-aux-Trembles	13050 rue Prince-Albert			305401,2447	5057123,795		-73.492289	45.654
0	Piscine extérieure	Piscine Ste-Maria-Goretti	Rivière-des-Prairies/Pointe-aux-Trembles	488 85e ave			305753,118	5061284,606		-73.487764	45.691441
0	Piscine extérieure	Piscine Richelieu	Rivière-des-Prairies/Pointe-aux-Trembles	13600 rue Forsyth			304431,7043	5058232,922		-73.504735	45.663979
0	Jeux d'eau	Jeux d'eau Pierre-Blanchet	Rivière-des-Prairies/Pointe-aux-Trembles	coin Pierre-Blanchet et André Ampère			296752,1729	5054190,882		-73.603214	45.627562
0	Jeux d'eau	Jeux d'eau Jean Leduc	Rivière-des-Prairies/Pointe-aux-Trembles	coin Jean Leduc et Forsyth			304235,617	5057158,848		-73.50725	45.654315
0	Jeux d'eau, Piscine	Jeux d'eau Montmartre	Rivière-des-Prairies/Pointe-aux-Trembles	coin  de Montigny et 59e ave			305008,8144	5059564,33		-73.49733	45.675965
0	Jeux d'eau	Jeux d'eau Dollard Morin	Rivière-des-Prairies/Pointe-aux-Trembles	coin Boul Maurice Duplessi et La Valiniè			297563,9889	5054176,3		-73.592813	45.627445
0	Piscine extérieure	Piscine parc des Pins	Rivière-des-Prairies/Pointe-aux-trembles				303503,8262	5058490,757		-73.516645	45.666299
0	Piscine extérieure, Pataugeoire	Piscine Joseph-Paré	Rosemont/La-Petite-Patrie	6525 41e Ave			299310,9251	5048245,688		-73.570342	45.574092
0	Piscine extérieure, Pataugeoire	Piscine Le Pélican	Rosemont/La-Petite-Patrie	2560 rue Masson			298834,1641	5044932,138		-73.5764	45.544277
0	Piscine intérieure	Piscine Saint-Denis	Rosemont/La-Petite-Patrie	7075 rue Saint-hubert			296063,5207	5044507,257		-73.611878	45.540423
0	Piscine intérieure	Piscine Rosemont	Rosemont/La-Petite-Patrie	6100 8e Avenue			298334,3242	5045786,31		-73.582814	45.551957
0	Piscine intérieure	Piscine Père-Marquette	Rosemont/La-Petite-Patrie	1600 rue Drucourt			297359,6451	5044602,456		-73.595284	45.541293
0	Pataugeoire	Pataugeoire Lafond	Rosemont/La-Petite-Patrie	3500 Lafond			299458,5453	5045855,327		-73.568419	45.552587
0	Pataugeoire	Pataugeoire Beaubine	Rosemont/La-Petite-Patrie	6633 6e Avenue			297625,7358	5045955,467		-73.591897	45.553471
0	Jeux d'eau	Jeux d'eau Parc Jean-Duceppe	Rosemont/La-Petite-Patrie	coin Mont-Royal et André-Laurendeau			299554,0278	5044903,985		-73.567179	45.544022
0	Jeux d'eau	Jeux d'eau Parc Jean-Tysseyre	Rosemont/La-Petite-Patrie	coin Laurier Est et Charlemagne			299562,9608	5046324,782		-73.567092	45.556808
0	Jeux d'eau	Jeux d'eau Parc Saint-Édouard	Rosemont/La-Petite-Patrie	coin Saint-André et Saint-Zotique			296466,7068	5044327,169		-73.606714	45.538808
0	Jeux d'eau	Jeux d'eau Parc Etienne-Desmarteau	Rosemont/La-Petite-Patrie	coin Beaubien et 16e avenue			298565,2524	5046722,571		-73.579868	45.560381
0	Piscine extérieure	Piscine Decelles	Saint-Laurent	845 Roy			290946,5852	5041524,479		-73.677316	45.513498
0	Piscine extérieure	Piscine Painter	Saint-Laurent	260 Marcotte			291054,9187	5043237,974		-73.675982	45.528914
0	Piscine extérieure	Piscine Marlborough	Saint-Laurent	2105 Beauzèle			287544,7228	5042525,385		-73.720893	45.522429
0	Piscine extérieure	Piscine Bourbonnière	Saint-Laurent	2800 boul Cazeneuve			288959,3755	5040258,957		-73.702707	45.502064
0	Piscine extérieure	Piscine Hartebstein	Saint-Laurent	1505 Cardinal			289836,7162	5041988,444		-73.691537	45.51765
0	Piscine extérieure	Piscine St-Laurent	Saint-Laurent	845 rue Poirier			290141,871	5043106,572		-73.687667	45.527717
0	Piscine extérieure	Piscine Chamberland	Saint-Laurent	800 Dorais			289972,1371	5040378,888		-73.689748	45.503166
0	Piscine extérieure	Piscine Noël-Nord	Saint-Laurent	2900 Baker			286952,7987	5041972,562		-73.728451	45.517439
0	Pataugeoire	Pataugeoire Alexis-Nihon	Saint-Laurent	coin Nantel et Bertrand			289892,912	5039676,81		-73.69075	45.496847
0	Jeux d'eau	Jeux d'eau Poirier	Saint-Laurent	coin Trudeau et Hislop			292097,1928	5041582,364		-73.662586	45.514042
0	Jeux d'eau	Jeux d'eau Goulet	Saint-Laurent	coin Oxford et Patricia			289032,8268	5042480,921		-73.701844	45.52206
0	Jeux d'eau	Jeux d'eau Beaulac	Saint-Laurent	coin Élizabeth et Dutrisac			290937,5121	5042270,181		-73.677453	45.520211
0	Jeux d'eau	Jeux d'eau Gohier	Saint-Laurent	coin de l'Église et Bucchanan			290661,7131	5040966,455		-73.680948	45.508471
0	Jeux d'eau	Jeux d'eau Houde	Saint-Laurent	coin Saint-Louis et Gratton			290703,9115	5040134,725		-73.680387	45.500985
0	Jeux d'eau	Jeux d'eau Harris	Saint-Laurent	coin O'Brien et Tassé			290348,4501	5042138,018		-73.684988	45.519011
0	Piscine intérieure	Piscine Émile-Legault	Saint-Laurent				288903,4849	5040706,59		-73.703438	45.506094
0	Piscine extérieure, Jeux d'eau	Piscine Ferland	Saint-Léonard	6020 boul Lavoisier			297142,0049	5050664,351		-73.598157	45.595838
0	Piscine extérieure, Jeux d'eau	Piscine Garibaldi	Saint-Léonard	7125 rue Liénart			299174,1185	5049636,222		-73.5721	45.586608
0	Piscine extérieure	Piscine Hébert	Saint-Léonard	7505 boul Provencher			297559,642	5048071,841		-73.592774	45.57251
0	Piscine extérieure, Pataugeoire	Piscine Ladauversière	Saint-Léonard	7560 boul Lacordaire			298335,9738	5049093,269		-73.582845	45.581714
0	Piscine extérieure, Pataugeoire	Piscine Pi XII	Saint-Léonard	5200 boul Lavoisier			296491,9136	5049936,571		-73.606489	45.58928
0	Jeux d'eau	Jeux d'eau Parc Coubertin	Saint-Léonard	4755 Rue Valéry			296261,5051	5049311,131		-73.609426	45.583653
0	Jeux d'eau	Jeux d'eau Parc Delorme	Saint-Léonard	6060 rue Honfleur			297768,0606	5050231,199		-73.590127	45.591949
0	Jeux d'eau	Jeux d'eau Pirandello	Saint-Léonard	4550 rue Compiègne			296657,111	5048723,534		-73.604342	45.578367
0	Piscine intérieure	Piscine Saint-Léonard	Saint-Léonard				297018,1069	5049443,603		-73.599727	45.58485
0	Piscine extérieure	Piscine Georges-Étienne Cartier	Sud-Ouest	4550 rue Sainte-Émilie			298178,1093	5036975,39		-73.584693	45.47267
0	Piscine extérieure, Pataugeoire	Piscine Ignace Bourget	Sud-Ouest	5925 ave de Montmagny			296627,8377	5035245,963		-73.604501	45.457087
0	Piscine intérieure	Bain Émard	Sud-Ouest	6071 ru Laurendeau			297853,5132	5035327,721		-73.588827	45.457838
0	Piscine intérieure	Piscine Saint-Charles	Sud-Ouest	1055 rue Hibernia			299841,3828	5037745,554		-73.563432	45.479613
0	Piscine intérieure	Piscine Saint-Jacques	Sud-Ouest	4055 rue Saint-Charles			298066,4353	5037551,505		-73.586134	45.477852
0	Piscine intérieure	Piscine Gadbois	Sud-Ouest	5485 chemin de la côte Saint-Paul			297314,1886	5036270,202		-73.595733	45.466318
0	Piscine intérieure	Centre sportif de la petite bourgogne	Sud-Ouest	1825 Rue Notre-Dame Ouest			299410,7216	5038704,397		-73.568955	45.488239
0	Pataugeoire	Pataugeoire Saint-Gabriel	Sud-Ouest	2355 rue Mullins			299754,9157	5037677,657		-73.564544	45.479
0	Pataugeoire	Pataugeoire Campbell Ouest	Sud-Ouest	1990 rue de Maricourt			297633,2913	5035340,432		-73.59164	45.457952
0	Pataugeoire	Pataugeoire Vinet	Sud-Ouest	560 rue Vinet			298904,1923	5038214,639		-73.575423	45.483826
0	Pataugeoire	Pataugeoire Oscar Peterson	Sud-Ouest	810 rue Chatham			298996,9776	5038757,642		-73.574252	45.488713
0	Pataugeoire	Pataugeoire Curé A-Arnold	Sud-Ouest	6855 rue Hamilton			297330,2398	5034440,115		-73.5955	45.449851
0	Pataugeoire	Pataugeoire le Ber	Sud-Ouest	470 rue Fortune			300468,4118	5037424,883		-73.555409	45.476729
0	Jeux d'eau	Jeux d'eau Louis Cyr	Sud-Ouest	205 rue Saint-Ferdinand			298309,2575	5037301,791		-73.583022	45.475605
0	Piscine extérieure, Jeux d'eau	Piscine Natatorium	Verdun	6500 boul LaSalle			298868,2296	5033741,997		-73.575829	45.443575
0	Piscine extérieure, Jeux d'eau	Piscine Arthur-Therrien	Verdun	10 rue Hicson			300005,2439	5036002,816		-73.561317	45.46393
0	Piscine extérieure	Piscine communautaire Elgar	Verdun	260 rue Elgar			301056,4839	5035264,484		-73.547872	45.457295
0	Piscine extérieure	Place de la Fontaine	Verdun	550 place de la Fontaine			301299,1577	5035947,75		-73.544769	45.463443
0	Jeux d'eau	Jeux d'eau Beatty	Verdun	5650 boul LaSalle			299493,5924	5034524,383		-73.567848	45.450626
0	Jeux d'eau	Jeux d'eau Cooney	Verdun	1175 rue Melrose			298524,019	5034974,596		-73.580242	45.454668
0	Jeux d'eau	Jeux d'eau Duquette	Verdun	900 rue Dupuis			298952,4449	5036214,546		-73.574785	45.465829
0	Jeux d'eau	Jeux d'eau Johannette	Verdun	rue Hickson			299469,7795	5036089,254		-73.568172	45.464709
0	Jeux d'eau	Jeux d'eau Parc Monseigneur J.-A. Richard	Verdun	boul LaSalle			299769,5564	5035034,292		-73.564325	45.455218
0	Jeux d'eau	Jeux d'eau Parc Normand-Dawe	Verdun	1060 rue Woodland			298646,556	5034733,993		-73.57868	45.4525
0	Jeux d'eau	Jeux d'eau Parc Poirier	Verdun	3215 boul LaSalle			299388,9048	5036830,226		-73.569216	45.471376
0	Jeux d'eau	Jeux d'eau Willibrord	Verdun	800 rue Willibrord			298994,3134	5035473,395		-73.574239	45.459162
0	Jeux d'eau	Jeux d'eau Parc Wilson	Verdun	1075 boul Brown			298541,2333	5034321,983		-73.580017	45.448792
0	Jeux d'eau	Jeux d'eau Parc de la Reine Élizabeth	Verdun	1650 rue Crawford			297627,5257	5033187,024		-73.591685	45.438579
0	Piscine intérieure	Piscine Jonh F. Kennedy	Vielleray/Saint-Michel/Parc-Extension				296710,4364	5046654,674		-73.603628	45.55975
0	Piscine extérieure	Complexe aquatique de l'île Sainte-Hélène	Ville-Marie	1 chemin tour de l'Isle			302115,6176	5041426,179		-73.534365	45.512749
0	Plage	Plage du Parc Jean-Drapeau	Ville-Marie	1 Circuit Gilles-Villeneuve			302915,9272	5039856,348		-73.52412	45.498624
0	Piscine intérieure	Bain Quintal	Ville-Marie	1550 rue Dufresne			300982,8099	5043218,372		-73.54888	45.528869
0	Piscine intérieure	Piscine du Vieux-Montréal	Ville-Marie	255 rue Ontario est			299607,0563	5041572,973		-73.566465	45.514048
0	Piscine intérieure	Piscine du YMCA Centre-Ville	Ville-Marie	1440 rue Stanley			298974,303	5039975,909		-73.574548	45.499673
0	Piscine intérieure	Piscine Association sportive et communauaire Centre-S	Ville-Marie	2093 de la Visitation			299903,3359	5042550,548		-73.562687	45.522851
0	Piscine intérieure	Piscine du Centre Jean-CLaude Malépart	Ville-Marie	2633 Ontario Est			300708,2894	5043766,465		-73.552392	45.533798
0	Pataugeoire	Pataugeoire Parc Médéric-Martin	Ville-Marie	2130 ave Gascon			300429,4384	5043932,011		-73.555966	45.53529
0	Pataugeoire	Pataugeoire Olivier-Robert	Ville-Marie	2325 boul de Maisonneuve			300945,775	5043168,628		-73.549353	45.528418
0	Pataugeoire	Pataugeoire des Vétérans	Ville-Marie	1655 ave Papineau			300522,2733	5042700,262		-73.554764	45.524205
0	Jeux d'eau	Jeux d'eau des Joyeux Vikings	Ville-Marie	coin Beaudry et Robin			300126,8241	5042333,307		-73.55983	45.5209
0	Jeux d'eau	Jeux d'eau Marcelle-Barthe	Ville-Marie	1853 rue Wolfe			300012,9561	5042259,33		-73.561289	45.520233
0	Jeux d'eau	Jeux d'eau Persillier-Lachapelle	Ville-Marie	coin Alexandre-de-sève et Ontario			299983,0724	5042744,857		-73.561665	45.524597
0	Jeux d'eau	Jeux d'eau des Royaux	Ville-Marie	2195 ave De Lorimier			300109,8243	5043358,576		-73.560057	45.530123
0	Jeux d'eau	Jeux d'eau Saint-Jacques	Ville-Marie	1360 rue Saint-Jacques			299536,228	5039257,29		-73.567349	45.493216
0	Jeux d'eau	Jeux d'eau Toussaint-Louverture	Ville-Marie	coin Maisonneuve et Saint-Dominique			299667,9701	5041435,02		-73.565696	45.512816
0	Piscine intérieure	Piscine Joseph-Charboneau	Villera/Saint-Michel/Parc-Extension				295140,6823	5045686,131		-73.62372	45.55102
0	Piscine extérieure, Pataugeoire	Piscine François-Perrault	Villeray/Saint-Michel/Parc-Extension	7525 rue François-Perrault			296951,2048	5046981,966		-73.600546	45.562696
0	Piscine extérieure, Pataugeoire	Piscine Jarry	Villeray/Saint-Michel/Parc-Extension	205 rue Faillon ouest			294939,8769	5043814,15		-73.626256	45.534172
0	Piscine extérieure, Pataugeoire	Piscine Sainte-Lucie	Villeray/Saint-Michel/Parc-Extension	9093 16e avenue			295017,9968	5048334,866		-73.625348	45.574846
0	Pataugeoire	Pataugeoire Bélair	Villeray/Saint-Michel/Parc-Extension	7035 2e ave			297163,8382	5046131,114		-73.597817	45.555049
0	Pataugeoire	Pataugeoire de Normanville	Villeray/Saint-Michel/Parc-Extension	7480 rue de Normanville			295711,2762	5045126,086		-73.616396	45.545989
0	Pataugeoire	Pataugeoire René Goupil	Villeray/Saint-Michel/Parc-Extension	4250 25e avenue			296153,0809	5048709,732		-73.610799	45.578235
0	Pataugeoire	Pataugeoire Ste-Yvette	Villeray/Saint-Michel/Parc-Extension	8950 10e Avenue			294993,0291	5047756,23		-73.625644	45.569644
0	Pataugeoire	Pataugeoire de Turin	Villeray/Saint-Michel/Parc-Extension	7205 rue Chambord			296195,601	5045061,91		-73.610197	45.54541
0	Pataugeoire	Pataugeoire de Sienne	Villeray/Saint-Michel/Parc-Extension	4151 53e Rue			294987,379	5049207,581		-73.62575	45.582701
0	Pataugeoire	Pataugeoire Nicolas Tillemont	Villeray/Saint-Michel/Parc-Extension	coin Villeray et des Érables			296045,8281	5046077,718		-73.612136	45.55455
0	Jeux d'eau	Jeux d'eau Champdoré	Villeray/Saint-Michel/Parc-Extension	9092 rue d'Iberville			294281,059	5047649,01		-73.634764	45.568671
0	Jeux d'eau	Jeux d'eau de l'Estre	Villeray/Saint-Michel/Parc-Extension	7930 ave Bloomfield			294379,3377	5043391,829		-73.633417	45.530358
0	Jeux d'eau	Jeux d'eau Ovila-Légaré	Villeray/Saint-Michel/Parc-Extension	4105 47e Rue			295159,0843	5049062,997		-73.623543	45.581398
0	Jeux d'eau	Jeux d'eau Howard	Villeray/Saint-Michel/Parc-Extension	8505 ave de l'Épée			293711,9497	5043791,028		-73.641979	45.533947
0	Piscine intérieure	Piscine Georges-Vernier	Villeray/Saint-Michel/Parc-Extension				295796,6958	5047587,614		-73.615353	45.568135
0	Piscine intérieure	Piscine du parc René-Goupil	villeray/Saint-Michel/Parc-Extension				296131,4374	5048679,61		-73.611081	45.577965
0	Piscine intérieure	Piscine du parc Saint-Roch	Villeray/Saint-Michel/Parc-Extension				294599,939	5043576,257		-73.630605	45.532026
